<?xml version="1.0" encoding="utf-8"?><gpx xmlns="http://www.topografix.com/GPX/1/1" xmlns:xsi="http://www.w3.org/2001/XMLSchema-instance" creator="Fishing Status https://fishingstatus.com/" version="1.1" xsi:schemaLocation="http://www.topografix.com/GPX/1/1 http://www.topografix.com/GPX/1/1/gpx.xsd">
                                <wpt lat="36.85796" lon="-75.59497">
                                <name>GULF HUSTLER</name>
                                <desc>ID#574126</desc>
                                <sym>Wreck</sym>
                            </wpt><wpt lat="37.15222" lon="-74.5675">
                                <name>SMS Ostfriesland</name>
                                <desc>ID#936704</desc>
                                <sym>Wreck</sym>
                            </wpt><wpt lat="36.84661" lon="-75.57721">
                                <name>Stanchion Wreck</name>
                                <desc>ID#679659</desc>
                                <sym>Wreck</sym>
                            </wpt><wpt lat="36.86349" lon="-75.5063">
                                <name>GULF HUSTLER</name>
                                <desc>ID#574127</desc>
                                <sym>Wreck</sym>
                            </wpt><wpt lat="36.82932" lon="-75.68976">
                                <name>SALTY SEA II</name>
                                <desc>ID#807676</desc>
                                <sym>Wreck</sym>
                            </wpt><wpt lat="36.72853" lon="-75.56917">
                                <name>MARGARET P. HANKS</name>
                                <desc>ID#807657</desc>
                                <sym>Wreck</sym>
                            </wpt><wpt lat="37.05354" lon="-75.85392">
                                <name>TWIN-WRECKS</name>
                                <desc>ID#1291717</desc>
                                <sym>Wreck</sym>
                            </wpt><wpt lat="36.91682" lon="-74.99961">
                                <name>EIDSVOLD</name>
                                <desc>ID#537819</desc>
                                <sym>Wreck</sym>
                            </wpt><wpt lat="36.89181" lon="-75.98132">
                                <name>JOANNA H. CANN</name>
                                <desc>ID#14481</desc>
                                <sym>Wreck</sym>
                            </wpt><wpt lat="37.05514" lon="-75.85103">
                                <name>BRAZIL</name>
                                <desc>ID#538782</desc>
                                <sym>Wreck</sym>
                            </wpt><wpt lat="37.435" lon="-74.70193">
                                <name>USS Cyclops Wrack</name>
                                <desc>ID#563719</desc>
                                <sym>Wreck</sym>
                            </wpt><wpt lat="36.56515" lon="-75.83964">
                                <name>CLYTHIA</name>
                                <desc>ID#539471</desc>
                                <sym>Wreck</sym>
                            </wpt><wpt lat="36.91584" lon="-75.84821">
                                <name>FAYE</name>
                                <desc>ID#538790</desc>
                                <sym>Wreck</sym>
                            </wpt><wpt lat="37.05514" lon="-75.85464">
                                <name>FRANCIS O BOYLE</name>
                                <desc>ID#14476</desc>
                                <sym>Wreck</sym>
                            </wpt><wpt lat="37.16681" lon="-75.03294">
                                <name>LIKI TIKI</name>
                                <desc>ID#807629</desc>
                                <sym>Wreck</sym>
                            </wpt><wpt lat="36.97848" lon="-75.96798">
                                <name>CHARMER</name>
                                <desc>ID#538784</desc>
                                <sym>Wreck</sym>
                            </wpt><wpt lat="36.30017" lon="-75.0496">
                                <name>BAURQUE</name>
                                <desc>ID#539441</desc>
                                <sym>Wreck</sym>
                            </wpt><wpt lat="36.95931" lon="-75.95548">
                                <name>E H BLUM</name>
                                <desc>ID#538788</desc>
                                <sym>Wreck</sym>
                            </wpt><wpt lat="36.34032" lon="-74.94772">
                                <name>SNOOPY</name>
                                <desc>ID#539882</desc>
                                <sym>Wreck</sym>
                            </wpt><wpt lat="36.90388" lon="-75.89153">
                                <name>TUGWINTHRO</name>
                                <desc>ID#190940</desc>
                                <sym>Wreck</sym>
                            </wpt><wpt lat="36.99732" lon="-75.4087">
                                <name>WRECK--TREPKA-</name>
                                <desc>ID#1291723</desc>
                                <sym>Wreck</sym>
                            </wpt><wpt lat="37.05698" lon="-75.89931">
                                <name>ANGLO AFRICAN</name>
                                <desc>ID#14445</desc>
                                <sym>Wreck</sym>
                            </wpt><wpt lat="37.25581" lon="-75.62097">
                                <name>BIRCH LAKE</name>
                                <desc>ID#537772</desc>
                                <sym>Wreck</sym>
                            </wpt><wpt lat="37.05458" lon="-75.89253">
                                <name>FISHERMANS</name>
                                <desc>ID#190956</desc>
                                <sym>Wreck</sym>
                            </wpt><wpt lat="36.82722" lon="-75.86839">
                                <name>KINGSTON CELONITE</name>
                                <desc>ID#807624</desc>
                                <sym>Wreck</sym>
                            </wpt><wpt lat="37.00015" lon="-74.99961">
                                <name>JUNIATA</name>
                                <desc>ID#537869</desc>
                                <sym>Wreck</sym>
                            </wpt><wpt lat="36.9654" lon="-75.34768">
                                <name>TERCELTUG</name>
                                <desc>ID#190988</desc>
                                <sym>Wreck</sym>
                            </wpt><wpt lat="37.16681" lon="-75.74964">
                                <name>NORWOOD</name>
                                <desc>ID#14496</desc>
                                <sym>Wreck</sym>
                            </wpt><wpt lat="36.49516" lon="-75.84964">
                                <name>USS HURON</name>
                                <desc>ID#540121</desc>
                                <sym>Wreck</sym>
                            </wpt><wpt lat="36.98198" lon="-75.34837">
                                <name>CLARKLIBER</name>
                                <desc>ID#190993</desc>
                                <sym>Wreck</sym>
                            </wpt><wpt lat="37.11681" lon="-74.75794">
                                <name>MERIDA</name>
                                <desc>ID#537892</desc>
                                <sym>Wreck</sym>
                            </wpt><wpt lat="37.45014" lon="-75.14963">
                                <name>HAUPPAUGE</name>
                                <desc>ID#537853</desc>
                                <sym>Wreck</sym>
                            </wpt><wpt lat="37.06754" lon="-75.05715">
                                <name>ZERDA</name>
                                <desc>ID#538777</desc>
                                <sym>Wreck</sym>
                            </wpt><wpt lat="37.46347" lon="-75.27797">
                                <name>FRANCIS E. POWELL</name>
                                <desc>ID#537834</desc>
                                <sym>Wreck</sym>
                            </wpt><wpt lat="36.92563" lon="-74.84749">
                                <name>VICKY</name>
                                <desc>ID#538766</desc>
                                <sym>Wreck</sym>
                            </wpt><wpt lat="36.89568" lon="-75.7138">
                                <name>BARGESTEEL</name>
                                <desc>ID#190839</desc>
                                <sym>Wreck</sym>
                            </wpt><wpt lat="36.46016" lon="-74.94293">
                                <name>CHENANGO</name>
                                <desc>ID#539462</desc>
                                <sym>Wreck</sym>
                            </wpt><wpt lat="37.40014" lon="-75.08296">
                                <name>HATIE DUNN</name>
                                <desc>ID#537852</desc>
                                <sym>Wreck</sym>
                            </wpt><wpt lat="36.96505" lon="-75.37982">
                                <name>USCGC Cuyahoga Wreck</name>
                                <desc>ID#780222</desc>
                                <sym>Wreck</sym>
                            </wpt><wpt lat="36.81453" lon="-75.39975">
                                <name>FRANCIS E. POWELL</name>
                                <desc>ID#807665</desc>
                                <sym>Wreck</sym>
                            </wpt><wpt lat="37.55847" lon="-74.93295">
                                <name>HANOVER NO.1</name>
                                <desc>ID#537847</desc>
                                <sym>Wreck</sym>
                            </wpt><wpt lat="36.89743" lon="-75.78095">
                                <name>SANTORE</name>
                                <desc>ID#807681</desc>
                                <sym>Wreck</sym>
                            </wpt><wpt lat="36.92015" lon="-74.71626">
                                <name>B.A.VAN BRUNT</name>
                                <desc>ID#14836</desc>
                                <sym>Wreck</sym>
                            </wpt><wpt lat="37.1778" lon="-74.76262">
                                <name>BUSTER</name>
                                <desc>ID#537776</desc>
                                <sym>Wreck</sym>
                            </wpt><wpt lat="36.93509" lon="-75.95499">
                                <name>WESTMORELAND</name>
                                <desc>ID#807683</desc>
                                <sym>Wreck</sym>
                            </wpt><wpt lat="36.98893" lon="-75.36307">
                                <name>USNS Clark Wreck</name>
                                <desc>ID#780223</desc>
                                <sym>Wreck</sym>
                            </wpt><wpt lat="36.90015" lon="-75.96632">
                                <name>OCEAN BELLE</name>
                                <desc>ID#539293</desc>
                                <sym>Wreck</sym>
                            </wpt><wpt lat="36.76515" lon="-75.77131">
                                <name>TIGER</name>
                                <desc>ID#539912</desc>
                                <sym>Wreck</sym>
                            </wpt><wpt lat="36.97448" lon="-75.38572">
                                <name>OLDVESSELP</name>
                                <desc>ID#190973</desc>
                                <sym>Wreck</sym>
                            </wpt><wpt lat="36.38761" lon="-74.93784">
                                <name>SEA HAWK</name>
                                <desc>ID#539878</desc>
                                <sym>Wreck</sym>
                            </wpt><wpt lat="37.28375" lon="-75.70048">
                                <name>GEE-BEE-GEE</name>
                                <desc>ID#14478</desc>
                                <sym>Wreck</sym>
                            </wpt><wpt lat="37.05987" lon="-74.92183">
                                <name>OCEAN VENTURE</name>
                                <desc>ID#538366</desc>
                                <sym>Wreck</sym>
                            </wpt><wpt lat="37.00125" lon="-75.40798">
                                <name>USNS Morgan Wreck</name>
                                <desc>ID#780228</desc>
                                <sym>Wreck</sym>
                            </wpt><wpt lat="36.9761" lon="-75.41393">
                                <name>Lillian Luckenback Wreck</name>
                                <desc>ID#780227</desc>
                                <sym>Wreck</sym>
                            </wpt><wpt lat="37.53347" lon="-75.43298">
                                <name>MENOMINEE</name>
                                <desc>ID#537890</desc>
                                <sym>Wreck</sym>
                            </wpt><wpt lat="36.99098" lon="-75.36367">
                                <name>USNS Haviland Wreck</name>
                                <desc>ID#780224</desc>
                                <sym>Wreck</sym>
                            </wpt><wpt lat="36.90017" lon="-75.72083">
                                <name>HOPPERBARG</name>
                                <desc>ID#190862</desc>
                                <sym>Wreck</sym>
                            </wpt><wpt lat="37.5585" lon="-75.4041">
                                <name>BARNEGATBA</name>
                                <desc>ID#191082</desc>
                                <sym>Wreck</sym>
                            </wpt><wpt lat="36.6" lon="-74.75">
                                <name>Equipoise</name>
                                <desc>ID#1347404</desc>
                                <sym>Wreck</sym>
                            </wpt><wpt lat="37.1617" lon="-74.74477">
                                <name>UBOAT140</name>
                                <desc>ID#191101</desc>
                                <sym>Wreck</sym>
                            </wpt><wpt lat="36.99482" lon="-75.36133">
                                <name>USNS Webster Wreck</name>
                                <desc>ID#780225</desc>
                                <sym>Wreck</sym>
                            </wpt><wpt lat="36.72442" lon="-75.55855">
                                <name>HANKSMAGNE</name>
                                <desc>ID#190954</desc>
                                <sym>Wreck</sym>
                            </wpt><wpt lat="37.5368" lon="-75.41131">
                                <name>ALLEGHANY</name>
                                <desc>ID#537738</desc>
                                <sym>Wreck</sym>
                            </wpt><wpt lat="37.25514" lon="-75.73964">
                                <name>GASTON</name>
                                <desc>ID#538791</desc>
                                <sym>Wreck</sym>
                            </wpt><wpt lat="37.31458" lon="-75.60798">
                                <name>PACIFIC</name>
                                <desc>ID#538372</desc>
                                <sym>Wreck</sym>
                            </wpt><wpt lat="37.25587" lon="-75.62106">
                                <name>wreck-9762</name>
                                <desc>ID#1034979</desc>
                                <sym>Wreck</sym>
                            </wpt><wpt lat="37.2557" lon="-75.51075">
                                <name>SUBCHASER 187</name>
                                <desc>ID#538429</desc>
                                <sym>Wreck</sym>
                            </wpt><wpt lat="36.50016" lon="-74.78293">
                                <name>NORDHAV</name>
                                <desc>ID#539597</desc>
                                <sym>Wreck</sym>
                            </wpt><wpt lat="36.86943" lon="-74.8442">
                                <name>SCHOO1</name>
                                <desc>ID#191078</desc>
                                <sym>Wreck</sym>
                            </wpt><wpt lat="37.08972" lon="-75.60403">
                                <name>CONCRETESH</name>
                                <desc>ID#190950</desc>
                                <sym>Wreck</sym>
                            </wpt><wpt lat="37.50013" lon="-74.86628">
                                <name>EDNA</name>
                                <desc>ID#14931</desc>
                                <sym>Wreck</sym>
                            </wpt><wpt lat="37.28347" lon="-75.66631">
                                <name>MARY L. LEWIS</name>
                                <desc>ID#14490</desc>
                                <sym>Wreck</sym>
                            </wpt><wpt lat="37.28347" lon="-75.64964">
                                <name>MERIDIAN</name>
                                <desc>ID#14492</desc>
                                <sym>Wreck</sym>
                            </wpt><wpt lat="37.53687" lon="-75.41135">
                                <name>ALLEGHENYB</name>
                                <desc>ID#191075</desc>
                                <sym>Wreck</sym>
                            </wpt><wpt lat="37.5268" lon="-75.22991">
                                <name>BARNEGAT</name>
                                <desc>ID#14847</desc>
                                <sym>Wreck</sym>
                            </wpt><wpt lat="36.98872" lon="-75.35218">
                                <name>GARRISONTR</name>
                                <desc>ID#190992</desc>
                                <sym>Wreck</sym>
                            </wpt><wpt lat="37.52972" lon="-75.54655">
                                <name>PARTYBOAT</name>
                                <desc>ID#191065</desc>
                                <sym>Wreck</sym>
                            </wpt></gpx>