<?xml version="1.0" encoding="utf-8"?><gpx xmlns="http://www.topografix.com/GPX/1/1" version="1.1">
  <wpt lat="35.10333" lon="-75.18416">
    <name>280 Rocks</name>
    <sym>Rocks</sym>
  </wpt>
  <wpt lat="35.15033" lon="-75.30033">
    <name>Diamond Shoals Light Tower</name>
    <sym>Other</sym>
  </wpt>
  <wpt lat="35.09069" lon="-75.22912">
    <name>Hatteras Hole</name>
    <sym>Rocks</sym>
  </wpt>
  <wpt lat="35.04591" lon="-75.27078">
    <name>230 Rocks</name>
    <sym>Rocks</sym>
  </wpt>
  <wpt lat="35.27333" lon="-74.98333">
    <name>1250 Rocks</name>
    <sym>Rocks</sym>
  </wpt>
  
  <wpt lat="35.0604" lon="-75.2493">
    <name>240 Rocks</name>
    <sym>Rocks</sym>
  </wpt>
  <wpt lat="34.87387" lon="-75.98628">
    <name>Captain Earls Hump</name>
    <sym>Rocks</sym>
  </wpt>
  <wpt lat="34.64447" lon="-75.71392">
    <name>Portsmouth Point</name>
    <sym>Rocks</sym>
  </wpt>
  <wpt lat="35.06964" lon="-75.22423">
    <name>250 Rocks</name>
    <sym>Rocks</sym>
  </wpt>
  <wpt lat="35.0834" lon="-75.20895">
    <name>260 Rocks</name>
    <sym>Rocks</sym>
  </wpt>
  <wpt lat="35.53" lon="-74.8375">
    <name>The Point</name>
    <sym>Rocks</sym>
  </wpt>
  <wpt lat="35.24595" lon="-75.02149">
    <name>Buxton Ledge</name>
    <sym>Rocks</sym>
  </wpt>
  
  <wpt lat="34.95793" lon="-75.7398">
    <name>Ocracoke Rocks North</name>
    <sym>Rocks</sym>
  </wpt>
  
  <wpt lat="35.33468" lon="-75.36532">
    <name>AVON ROCK</name>
    <sym>Rocks</sym>
  </wpt>
  <wpt lat="35.14469" lon="-75.17192">
    <name>Frenzy Canyon</name>
    <sym>Rocks</sym>
  </wpt>
  <wpt lat="34.92775" lon="-75.46313">
    <name>Hatteras Rocks</name>
    <sym>Rocks</sym>
  </wpt>
  <wpt lat="35.55" lon="-75.25017">
    <name>Wimble Shoals Wreck</name>
    <sym>Wreck</sym>
  </wpt>
  <wpt lat="34.89821" lon="-75.32928">
    <name>Nevado Hole</name>
    <sym>Rocks</sym>
  </wpt>
  <wpt lat="34.90285" lon="-75.74645">
    <name>Ocracoke Rocks South</name>
    <sym>Rocks</sym>
  </wpt>
  
  <wpt lat="35.7996" lon="-75.35728">
    <name>Platt Shoals</name>
    <sym>Rocks</sym>
  </wpt>
  <wpt lat="34.87354" lon="-75.48613">
    <name>Ocracoke Rock Pile NE</name>
    <sym>Rocks</sym>
  </wpt>
  <wpt lat="35.29917" lon="-74.91795">
    <name>Bigeye Hill</name>
    <sym>Rocks</sym>
  </wpt>
  <wpt lat="35.21499" lon="-74.97618">
    <name>Bishops Sword</name>
    <sym>Rocks</sym>
  </wpt>
  <wpt lat="35.09184" lon="-75.55793">
    <name>NORTHEASTERN</name>
    <sym>Wreck</sym>
  </wpt>
  <wpt lat="34.80693" lon="-75.55006">
    <name>Portsmouth Hump</name>
    <sym>Rocks</sym>
  </wpt>
  <wpt lat="35.3046" lon="-74.9623">
    <name>Loftin Canyon</name>
    <sym>Rocks</sym>
  </wpt>
  <wpt lat="36.0292" lon="-74.85504">
    <name>Kitty Hawk Triangle 3</name>
    <sym>Rocks</sym>
  </wpt>
  <wpt lat="35.39163" lon="-74.88805">
    <name>Duffie Canyon</name>
    <sym>Rocks</sym>
  </wpt>
  <wpt lat="35.03555" lon="-75.32382">
    <name>210 Rocks</name>
    <sym>Structure</sym>
  </wpt>
  <wpt lat="34.9528" lon="-75.29788">
    <name>Niveis Hole</name>
    <sym>Rocks</sym>
  </wpt>
  <wpt lat="34.98533" lon="-75.42983">
    <name>Squirrel Rock</name>
    <sym>Rocks</sym>
  </wpt>
  
  <wpt lat="35.134" lon="-75.673">
    <name>AR200 - CONCRETE RUBBLE</name>
    <sym>Rocks</sym>
  </wpt>
  <wpt lat="35.05465" lon="-75.26785">
    <name>Southeast Rocks</name>
    <sym>Rocks</sym>
  </wpt>
  <wpt lat="35.20322" lon="-75.1026">
    <name>350 Rocks</name>
    <sym>Rocks</sym>
  </wpt>
  <wpt lat="34.93206" lon="-75.35733">
    <name>70 Fathom Rock</name>
    <sym>Rocks</sym>
  </wpt>
  <wpt lat="34.86069" lon="-75.40545">
    <name>Snowy Ledge</name>
    <sym>Rocks</sym>
  </wpt>
  <wpt lat="35.03106" lon="-75.13279">
    <name>Long Hump</name>
    <sym>Rocks</sym>
  </wpt>
  <wpt lat="35.12182" lon="-75.04503">
    <name>320 Fathom Hump</name>
    <sym>Rocks</sym>
  </wpt>
  <wpt lat="34.75808" lon="-75.6177">
    <name>YELLOWFIN-HOLE</name>
    <sym>Rocks</sym>
  </wpt>
  <wpt lat="35.12007" lon="-75.19539">
    <name>290 Ledge</name>
    <sym>Rocks</sym>
  </wpt>
  
  <wpt lat="35.29119" lon="-75.24372">
    <name>Avon Hump</name>
    <sym>Rocks</sym>
  </wpt>
  <wpt lat="36.01059" lon="-75.11871">
    <name>Memorial Rocks</name>
    <sym>Rocks</sym>
  </wpt>
  <wpt lat="35.1344" lon="-75.17745">
    <name>300 Rocks</name>
    <sym>Rocks</sym>
  </wpt>
  <wpt lat="36.19228" lon="-75.381">
    <name>Duck Hole</name>
    <sym>Rocks</sym>
  </wpt>
  <wpt lat="35.95171" lon="-74.8748">
    <name>Nags Head Hump</name>
    <sym>Rocks</sym>
  </wpt>
  <wpt lat="35.12125" lon="-75.49105">
    <name>Shoals Hump</name>
    <sym>Rocks</sym>
  </wpt>
  <wpt lat="36.03531" lon="-74.83342">
    <name>Kitty Hawk Triangle 2</name>
    <sym>Rocks</sym>
  </wpt>
  <wpt lat="36.28656" lon="-75.08162">
    <name>980 Hump</name>
    <sym>Rocks</sym>
  </wpt>
  <wpt lat="35.18184" lon="-75.35292">
    <name>USS Virginia BB-13</name>
    <sym>Wreck</sym>
  </wpt>
  <wpt lat="36.04448" lon="-74.84836">
    <name>Kitty Hawk Triangle 1</name>
    <sym>Rocks</sym>
  </wpt>
  
  <wpt lat="36.35101" lon="-74.79717">
    <name>Corolla Rock</name>
    <sym>Rocks</sym>
  </wpt>
  
  <wpt lat="35.16458" lon="-75.13881">
    <name>Tuna Rock</name>
    <sym>Rocks</sym>
  </wpt>
  <wpt lat="34.63293" lon="-75.55917">
    <name>Deep Hump</name>
    <sym>Rocks</sym>
  </wpt>
  
  <wpt lat="35.44992" lon="-74.86075">
    <name>Salvo Ledge</name>
    <sym>Rocks</sym>
  </wpt>
  
  <wpt lat="35.11677" lon="-75.11627">
    <name>W ROCKEFEL1</name>
    <sym>Wreck</sym>
  </wpt>
  <wpt lat="35.08018" lon="-75.33292">
    <name>DIAMOND SHOAL NO. 71</name>
    <sym>Other</sym>
  </wpt>
  <wpt lat="35.257" lon="-75.40833">
    <name>Southeast Rocks</name>
    <sym>Rocks</sym>
  </wpt>
  <wpt lat="34.74104" lon="-75.49163">
    <name>GT HUMP</name>
    <sym>Rocks</sym>
  </wpt>
  <wpt lat="35.15684" lon="-75.30347">
    <name>BRITISH SPLENDOUR</name>
    <sym>Wreck</sym>
  </wpt>
  <wpt lat="35.00199" lon="-75.4067">
    <name>MONITOR</name>
    <sym>Wreck</sym>
  </wpt>
  <wpt lat="35.89805" lon="-75.39917">
    <name>AR-1459</name>
    <sym>Wreck</sym>
  </wpt>
  
  
  <wpt lat="34.94657" lon="-75.91339">
    <name>AR-2509</name>
    <sym>Rocks</sym>
  </wpt>
  <wpt lat="35.89916" lon="-75.39972">
    <name>AR-1457</name>
    <sym>Wreck</sym>
  </wpt>
  <wpt lat="35.13314" lon="-75.46101">
    <name>BIG-ROCK8</name>
    <sym>Rocks</sym>
  </wpt>
  <wpt lat="35.14166" lon="-75.39166">
    <name>Point Shoals Buoy1</name>
    <sym>Other</sym>
  </wpt>
  <wpt lat="34.94646" lon="-75.91353">
    <name>AR-2504</name>
    <sym>Rocks</sym>
  </wpt>
  <wpt lat="35.89946" lon="-75.39888">
    <name>AR-1454</name>
    <sym>Wreck</sym>
  </wpt>
  </gpx>